NORAD_CAT_ID,OBJECT_NAME,OBJECT_TYPE,EPOCH,MEAN_MOTION,ECCENTRICITY,INCLINATION,RA_OF_ASC_NODE,ARG_OF_PERICENTER,MEAN_ANOMALY,BSTAR,MEAN_MOTION_DOT,MEAN_MOTION_DDOT,TLE_LINE0,TLE_LINE1,TLE_LINE2,SEMIMAJOR_AXIS,PERIOD,APOGEE,PERIGEE,DECAYED
52670.0,STARLINK-4075,PAYLOAD,2024-04-08 07:30:32,15.0884041,0.0001693,53.2183,58.3014,97.3854,262.733,2.4565e-05,1.03e-06,0.0,0 STARLINK-4075,1 52670U 22053Q   24099.31288000  .00000103  00000-0  24565-4 0  9998,2 52670  53.2183  58.3014 0001693  97.3854 262.7330 15.08840410104885,6917.879,95.438,540.915,538.573,0.0
52670.0,STARLINK-4075,PAYLOAD,2024-04-08 13:52:05,15.08840838,0.00017,53.2181,57.1119,96.8466,263.272,-1.6625e-05,-5.53e-06,0.0,0 STARLINK-4075,1 52670U 22053Q   24099.57784107 -.00000553  00000-0 -16625-4 0  9994,2 52670  53.2181  57.1119 0001700  96.8466 263.2720 15.08840838105354,6917.878,95.438,540.919,538.567,0.0
52670.0,STARLINK-4075,PAYLOAD,2024-04-09 13:42:52,15.08842264,0.0001581,53.2181,52.6503,92.9663,267.151,3.7774e-05,3.13e-06,0.0,0 STARLINK-4075,1 52670U 22053Q   24100.57143935  .00000313  00000-0  37774-4 0  9995,2 52670  53.2181  52.6503 0001581  92.9663 267.1510 15.08842264105506,6917.873,95.437,540.832,538.645,0.0
52670.0,STARLINK-4075,PAYLOAD,2024-04-09 20:04:25,15.08836922,0.0001579,53.2182,51.4614,96.8592,263.2579,7.4595e-05,8.99e-06,0.0,0 STARLINK-4075,1 52670U 22053Q   24100.83640180  .00000899  00000-0  74595-4 0  9999,2 52670  53.2182  51.4614 0001579  96.8592 263.2579 15.08836922105111,6917.89,95.438,540.847,538.662,0.0
52670.0,STARLINK-4075,PAYLOAD,2024-04-10 13:33:39,15.08838693,0.0001639,53.2192,48.1904,92.1527,267.9653,-7.4724e-06,-4.07e-06,0.0,0 STARLINK-4075,1 52670U 22053Q   24101.56504543 -.00000407  00000-0 -74724-5 0  9994,2 52670  53.2192  48.1904 0001639  92.1527 267.9653 15.08838693105651,6917.884,95.438,540.883,538.616,0.0
52670.0,STARLINK-4075,PAYLOAD,2024-04-11 02:16:44,15.08838018,0.0001574,53.2189,45.8125,93.7507,266.3665,8.7453e-05,1.104e-05,0.0,0 STARLINK-4075,1 52670U 22053Q   24102.09496413  .00001104  00000-0  87453-4 0  9994,2 52670  53.2189  45.8125 0001574  93.7507 266.3665 15.08838018105308,6917.886,95.438,540.84,538.663,0.0
52670.0,STARLINK-4075,PAYLOAD,2024-04-12 05:18:17,15.08843895,0.0001494,53.2182,40.7553,93.993,266.1233,0.0001026,1.345e-05,0.0,0 STARLINK-4075,1 52670U 22053Q   24103.22103914  .00001345  00000-0  10260-3 0  9999,2 52670  53.2182  40.7553 0001494  93.9930 266.1233 15.08843895105479,6917.868,95.437,540.767,538.7,0.0
52670.0,STARLINK-4075,PAYLOAD,2024-04-13 01:58:18,15.08842681,0.0001726,53.2189,36.8896,78.702,281.4166,3.5422e-05,2.76e-06,0.0,0 STARLINK-4075,1 52670U 22053Q   24104.08216347  .00000276  00000-0  35422-4 0  9999,2 52670  53.2189  36.8896 0001726  78.7020 281.4166 15.08842681105603,6917.872,95.437,540.931,538.543,0.0
52670.0,STARLINK-4075,PAYLOAD,2024-04-14 01:49:07,15.08824898,0.0001658,53.2202,32.4261,97.0096,263.1084,-7.3341e-05,-1.455e-05,0.0,0 STARLINK-4075,1 52670U 22053Q   24105.07578393 -.00001455  00000-0 -73341-4 0  9995,2 52670  53.2202  32.4261 0001658  97.0096 263.1084 15.08824898105750,6917.927,95.439,540.939,538.645,0.0
52670.0,STARLINK-4075,PAYLOAD,2024-04-14 22:29:07,15.08831419,0.000119,53.2191,28.565,108.7857,251.3265,0.00030556,4.577e-05,0.0,0 STARLINK-4075,1 52670U 22053Q   24105.93689069  .00004577  00000-0  30556-3 0  9999,2 52670  53.2191  28.5650 0001190 108.7857 251.3265 15.08831419106311,6917.907,95.438,540.595,538.948,0.0
52670.0,STARLINK-4075,PAYLOAD,2024-04-15 00:04:30,15.08847246,0.0001559,53.2207,28.2693,75.5193,284.5972,8.8945e-05,1.128e-05,0.0,0 STARLINK-4075,1 52670U 22053Q   24106.00312884  .00001128  00000-0  88945-4 0  9991,2 52670  53.2207  28.2693 0001559  75.5193 284.5972 15.08847246105896,6917.858,95.437,540.802,538.645,0.0
52670.0,STARLINK-4075,PAYLOAD,2024-04-15 19:09:07,15.0889296,0.0001372,53.2209,24.699,77.8242,282.2904,-0.00040587,-6.751e-05,0.0,0 STARLINK-4075,1 52670U 22053Q   24106.79800510 -.00006751  00000-0 -40587-3 0  9993,2 52670  53.2209  24.6990 0001372  77.8242 282.2904 15.08892960106019,6917.719,95.434,540.533,538.634,0.0
52670.0,STARLINK-4075,PAYLOAD,2024-04-15 23:55:17,15.08847739,0.0001568,53.2206,23.8044,94.7642,265.3529,0.00020842,3.031e-05,0.0,0 STARLINK-4075,1 52670U 22053Q   24106.99672739  .00003031  00000-0  20842-3 0  9993,2 52670  53.2206  23.8044 0001568  94.7642 265.3529 15.08847739106048,6917.857,95.437,540.806,538.637,0.0
52670.0,STARLINK-4075,PAYLOAD,2024-04-16 11:02:58,15.08853214,0.000118,53.2185,21.726,89.6692,270.4436,0.00015341,2.155e-05,0.0,0 STARLINK-4075,1 52670U 22053Q   24107.46040375  .00002155  00000-0  15341-3 0  9995,2 52670  53.2185  21.7260 0001180  89.6692 270.4436 15.08853214106543,6917.84,95.437,540.521,538.889,0.0
52670.0,STARLINK-4075,PAYLOAD,2024-04-16 22:10:40,15.08860946,0.000114,53.217,19.6433,88.7455,271.3667,-2.1951e-05,-6.37e-06,0.0,0 STARLINK-4075,1 52670U 22053Q   24107.92407440 -.00000637  00000-0 -21951-4 0  9996,2 52670  53.2170  19.6433 0001140  88.7455 271.3667 15.08860946106612,6917.816,95.436,540.47,538.893,0.0
52670.0,STARLINK-4075,PAYLOAD,2024-04-16 23:46:02,15.08866136,0.0001414,53.2168,19.345,92.0516,268.0638,5.4002e-05,5.72e-06,0.0,0 STARLINK-4075,1 52670U 22053Q   24107.99031126  .00000572  00000-0  54002-4 0  9996,2 52670  53.2168  19.3450 0001414  92.0516 268.0638 15.08866136106196,6917.801,95.436,540.644,538.687,0.0
52670.0,STARLINK-4075,PAYLOAD,2024-04-17 22:01:27,15.08842915,0.0001445,53.2181,15.1832,102.4505,257.6649,-1.5533e-05,-5.35e-06,0.0,0 STARLINK-4075,1 52670U 22053Q   24108.91767823 -.00000535  00000-0 -15533-4 0  9996,2 52670  53.2181  15.1832 0001445 102.4505 257.6649 15.08842915106765,6917.871,95.437,540.736,538.737,0.0
52670.0,STARLINK-4075,PAYLOAD,2024-04-18 02:47:36,15.08840982,0.0001122,53.2168,14.2904,95.2436,264.8685,-0.00012243,-2.236e-05,0.0,0 STARLINK-4075,1 52670U 22053Q   24109.11639736 -.00002236  00000-0 -12243-3 0  9994,2 52670  53.2168  14.2904 0001122  95.2436 264.8685 15.08840982106362,6917.877,95.437,540.519,538.966,0.0
52670.0,STARLINK-4075,PAYLOAD,2024-04-18 21:52:17,15.08803112,0.0001534,53.2184,10.7255,86.618,273.4988,-0.00046773,-7.717e-05,0.0,0 STARLINK-4075,1 52670U 22053Q   24109.91131085 -.00007717  00000-0 -46773-3 0  9990,2 52670  53.2184  10.7255 0001534  86.6180 273.4988 15.08803112106914,6917.993,95.44,540.919,538.797,0.0
52670.0,STARLINK-4075,PAYLOAD,2024-04-19 01:03:02,15.0882355,0.0001399,53.2182,10.131,106.6033,253.5113,-0.00028444,-4.81e-05,0.0,0 STARLINK-4075,1 52670U 22053Q   24110.04378187 -.00004810  00000-0 -28444-3 0  9998,2 52670  53.2182  10.1310 0001399 106.6033 253.5113 15.08823550106509,6917.931,95.439,540.763,538.828,0.0
52670.0,STARLINK-4075,PAYLOAD,2024-04-19 16:56:54,15.08840195,0.0001392,53.2187,7.1542,73.7054,286.4091,0.00044318,6.772e-05,0.0,0 STARLINK-4075,1 52670U 22053Q   24110.70618213  .00006772  00000-0  44318-3 0  9993,2 52670  53.2187   7.1542 0001392  73.7054 286.4091 15.08840195106602,6917.88,95.438,540.708,538.782,0.0
52670.0,STARLINK-4075,PAYLOAD,2024-04-19 21:43:02,15.08853356,0.0001364,53.2179,6.2727,91.1693,268.9455,0.00058704,9.071e-05,0.0,0 STARLINK-4075,1 52670U 22053Q   24110.90489281  .00009071  00000-0  58704-3 0  9995,2 52670  53.2179   6.2727 0001364  91.1693 268.9455 15.08853356107063,6917.84,95.437,540.648,538.761,0.0
52670.0,STARLINK-4075,PAYLOAD,2024-04-19 23:18:24,15.08883048,0.0001644,53.219,5.9625,107.8205,252.2967,0.00094967,0.00014876,0.0,0 STARLINK-4075,1 52670U 22053Q   24110.97111646  .00014876  00000-0  94967-3 0  9999,2 52670  53.2190   5.9625 0001644 107.8205 252.2967 15.08883048106642,6917.749,95.435,540.751,538.477,0.0
52670.0,STARLINK-4075,PAYLOAD,2024-04-20 21:33:49,15.08856124,0.0002218,53.2172,1.8059,152.6022,207.5087,0.00026628,3.954e-05,0.0,0 STARLINK-4075,1 52670U 22053Q   24111.89848505  .00003954  00000-0  26628-3 0  9996,2 52670  53.2172   1.8059 0002218 152.6022 207.5087 15.08856124107216,6917.831,95.437,541.23,538.162,0.0
52670.0,STARLINK-4075,PAYLOAD,2024-04-21 03:55:23,15.08810501,0.0001385,53.2167,0.6159,133.6006,226.5102,-0.00042454,-7.033e-05,0.0,0 STARLINK-4075,1 52670U 22053Q   24112.16346955 -.00007033  00000-0 -42454-3 0  9998,2 52670  53.2167   0.6159 0001385 133.6006 226.5102 15.08810501106827,6917.971,95.439,540.794,538.877,0.0
52670.0,STARLINK-4075,PAYLOAD,2024-04-21 19:49:14,15.08839505,0.0001467,53.219,357.6521,53.3487,306.764,-0.00029704,-5.012e-05,0.0,0 STARLINK-4075,1 52670U 22053Q   24112.82585968 -.00005012  00000-0 -29704-3 0  9998,2 52670  53.2190 357.6521 0001467  53.3487 306.7640 15.08839505106927,6917.882,95.438,540.762,538.732,0.0
52670.0,STARLINK-4075,PAYLOAD,2024-04-21 21:24:36,15.08849974,0.0001573,53.2185,357.3395,111.1731,248.9429,-3.5497e-05,-8.53e-06,0.0,0 STARLINK-4075,1 52670U 22053Q   24112.89208951 -.00000853  00000-0 -35497-4 0  9994,2 52670  53.2185 357.3395 0001573 111.1731 248.9429 15.08849974107362,6917.85,95.437,540.803,538.627,0.0
52670.0,STARLINK-4075,PAYLOAD,2024-04-22 02:10:45,15.08851576,0.0001754,53.2186,356.4447,127.8438,232.2713,0.00012967,1.777e-05,0.0,0 STARLINK-4075,1 52670U 22053Q   24113.09080759  .00001777  00000-0  12967-3 0  9991,2 52670  53.2186 356.4447 0001754 127.8438 232.2713 15.08851576106968,6917.845,95.437,540.923,538.497,0.0
52670.0,STARLINK-4075,PAYLOAD,2024-04-22 19:40:02,15.08821639,0.0001791,53.218,353.1662,126.7343,233.3814,0.00054405,8.377e-05,0.0,0 STARLINK-4075,1 52670U 22053Q   24113.81946972  .00008377  00000-0  54405-3 0  9995,2 52670  53.2180 353.1662 0001791 126.7343 233.3814 15.08821639107073,6917.937,95.439,541.041,538.563,0.0
52670.0,STARLINK-4075,PAYLOAD,2024-04-22 22:50:48,15.08819937,0.0001208,53.2187,352.5813,115.4473,244.6644,0.00048381,7.416e-05,0.0,0 STARLINK-4075,1 52670U 22053Q   24113.95195355  .00007416  00000-0  48381-3 0  9990,2 52670  53.2187 352.5813 0001208 115.4473 244.6644 15.08819937107527,6917.942,95.439,540.642,538.971,0.0
